{"type": "FeatureCollection", "features": [ {"type": "Feature", "properties": {"norad_id": 31412, "name": "FENGYUN 1C DEB", "group": "fengyun-1c-debris", "lat": 75.14685147638977, "lon": -90.47622385614423, "alt_km": 899.5972101187053, "timestamp": "2025-12-26T21:25:53.292569+00:00", "meta": {"OBJECT_NAME": "FENGYUN 1C DEB", "OBJECT_ID": "1999-025BSY", "EPOCH": "2025-12-25T14:24:19.497888", "MEAN_MOTION": 14.09916522, "ECCENTRICITY": 0.0082622, "INCLINATION": 98.552, "RA_OF_ASC_NODE": 302.8633, "ARG_OF_PERICENTER": 299.2185, "MEAN_ANOMALY": 60.0742, "EPHEMERIS_TYPE": 0, "CLASSIFICATION_TYPE": "U", "NORAD_CAT_ID": 31412, "ELEMENT_SET_NO": 999, "REV_AT_EPOCH": 61173, "BSTAR": 0.0017789, "MEAN_MOTION_DOT": 3.193e-05, "MEAN_MOTION_DDOT": 0}, "tle": {"line1": "1 31412U 99025BSY 25359.60022567  .00003193  00000+0  17789-2 0  9997", "line2": "2 31412  98.5520 302.8633 0082622 299.2185  60.0742 14.09916522611739"}}, "geometry": {"type": "Point", "coordinates": [-90.47622385614423, 75.14685147638977]}}, {"type": "Feature", "properties": {"norad_id": 31415, "name": "FENGYUN 1C DEB", "group": "fengyun-1c-debris", "lat": -80.30242276462887, "lon": 50.49600367033495, "alt_km": 823.1470058503128, "timestamp": "2025-12-26T21:25:53.292579+00:00", "meta": {"OBJECT_NAME": "FENGYUN 1C DEB", "OBJECT_ID": "1999-025BTB", "EPOCH": "2025-12-14T14:26:42.789696", "MEAN_MOTION": 14.30617484, "ECCENTRICITY": 0.00641277, "INCLINATION": 99.6387, "RA_OF_ASC_NODE": 300.8477, "ARG_OF_PERICENTER": 69.4394, "MEAN_ANOMALY": 291.365, "EPHEMERIS_TYPE": 0, "CLASSIFICATION_TYPE": "U", "NORAD_CAT_ID": 31415, "ELEMENT_SET_NO": 999, "REV_AT_EPOCH": 62857, "BSTAR": 0.0013058291, "MEAN_MOTION_DOT": 3.436e-05, "MEAN_MOTION_DDOT": 0}, "tle": {"line1": "1 31415U 99025BTB 25348.60188414  .00003436  00000+0  13058-2 0  9997", "line2": "2 31415  99.6387 300.8477 0064127  69.4394 291.3650 14.30617484628574"}}, "geometry": {"type": "Point", "coordinates": [50.49600367033495, -80.30242276462887]}}, {"type": "Feature", "properties": {"norad_id": 31416, "name": "FENGYUN 1C DEB", "group": "fengyun-1c-debris", "lat": 77.2044948462483, "lon": -83.49356583823045, "alt_km": 780.3308953999776, "timestamp": "2025-12-26T21:25:53.292589+00:00", "meta": {"OBJECT_NAME": "FENGYUN 1C DEB", "OBJECT_ID": "1999-025BTC", "EPOCH": "2025-12-26T09:17:43.588320", "MEAN_MOTION": 14.40699344, "ECCENTRICITY": 0.01333086, "INCLINATION": 99.0496, "RA_OF_ASC_NODE": 51.4042, "ARG_OF_PERICENTER": 210.5718, "MEAN_ANOMALY": 148.7651, "EPHEMERIS_TYPE": 0, "CLASSIFICATION_TYPE": "U", "NORAD_CAT_ID": 31416, "ELEMENT_SET_NO": 999, "REV_AT_EPOCH": 65716, "BSTAR": 0.00028652657, "MEAN_MOTION_DOT": 9.62e-06, "MEAN_MOTION_DDOT": 0}, "tle": {"line1": "1 31416U 99025BTC 25360.38731005  .00000962  00000+0  28653-3 0  9996", "line2": "2 31416  99.0496  51.4042 0133308 210.5718 148.7651 14.40699344657163"}}, "geometry": {"type": "Point", "coordinates": [-83.49356583823045, 77.2044948462483]}}, {"type": "Feature", "properties": {"norad_id": 31420, "name": "FENGYUN 1C DEB", "group": "fengyun-1c-debris", "lat": -47.76089824588664, "lon": -94.37852942986919, "alt_km": 676.6727325323845, "timestamp": "2025-12-26T21:25:53.292599+00:00", "meta": {"OBJECT_NAME": "FENGYUN 1C DEB", "OBJECT_ID": "1999-025BTG", "EPOCH": "2025-12-24T23:03:15.845184", "MEAN_MOTION": 14.40861261, "ECCENTRICITY": 0.01349187, "INCLINATION": 97.5586, "RA_OF_ASC_NODE": 255.5032, "ARG_OF_PERICENTER": 290.3751, "MEAN_ANOMALY": 83.1637, "EPHEMERIS_TYPE": 0, "CLASSIFICATION_TYPE": "U", "NORAD_CAT_ID": 31420, "ELEMENT_SET_NO": 999, "REV_AT_EPOCH": 65170, "BSTAR": 0.00064552807, "MEAN_MOTION_DOT": 2.264e-05, "MEAN_MOTION_DDOT": 0}, "tle": {"line1": "1 31420U 99025BTG 25358.96060006  .00002264  00000+0  64553-3 0  9994", "line2": "2 31420  97.5586 255.5032 0134918 290.3751  83.1637 14.40861261651707"}}, "geometry": {"type": "Point", "coordinates": [-94.37852942986919, -47.76089824588664]}}, {"type": "Feature", "properties": {"norad_id": 31422, "name": "FENGYUN 1C DEB", "group": "fengyun-1c-debris", "lat": 70.37179161489517, "lon": -28.152673992765394, "alt_km": 877.9316681705386, "timestamp": "2025-12-26T21:25:53.292609+00:00", "meta": {"OBJECT_NAME": "FENGYUN 1C DEB", "OBJECT_ID": "1999-025BTJ", "EPOCH": "2025-12-25T04:32:49.257600", "MEAN_MOTION": 14.09637595, "ECCENTRICITY": 0.00336758, "INCLINATION": 98.7605, "RA_OF_ASC_NODE": 355.8078, "ARG_OF_PERICENTER": 264.7622, "MEAN_ANOMALY": 167.559, "EPHEMERIS_TYPE": 0, "CLASSIFICATION_TYPE": "U", "NORAD_CAT_ID": 31422, "ELEMENT_SET_NO": 999, "REV_AT_EPOCH": 95837, "BSTAR": 0.00030191894, "MEAN_MOTION_DOT": 4.89e-06, "MEAN_MOTION_DDOT": 0}, "tle": {"line1": "1 31422U 99025BTJ 25359.18945900  .00000489  00000+0  30192-3 0  9995", "line2": "2 31422  98.7605 355.8078 0033675 264.7622 167.5590 14.09637595958372"}}, "geometry": {"type": "Point", "coordinates": [-28.152673992765394, 70.37179161489517]}}, {"type": "Feature", "properties": {"norad_id": 31423, "name": "FENGYUN 1C DEB", "group": "fengyun-1c-debris", "lat": 32.61455418918124, "lon": 166.90293258916782, "alt_km": 786.984004886338, "timestamp": "2025-12-26T21:25:53.292620+00:00", "meta": {"OBJECT_NAME": "FENGYUN 1C DEB", "OBJECT_ID": "1999-025BTK", "EPOCH": "2025-12-25T16:03:20.256480", "MEAN_MOTION": 14.229799, "ECCENTRICITY": 0.00367635, "INCLINATION": 98.5847, "RA_OF_ASC_NODE": 340.1629, "ARG_OF_PERICENTER": 156.3859, "MEAN_ANOMALY": 203.9017, "EPHEMERIS_TYPE": 0, "CLASSIFICATION_TYPE": "U", "NORAD_CAT_ID": 31423, "ELEMENT_SET_NO": 999, "REV_AT_EPOCH": 97152, "BSTAR": 0.00014479863, "MEAN_MOTION_DOT": 2.86e-06, "MEAN_MOTION_DDOT": 0}, "tle": {"line1": "1 31423U 99025BTK 25359.66898445  .00000286  00000+0  14480-3 0  9997", "line2": "2 31423  98.5847 340.1629 0036763 156.3859 203.9017 14.22979900971522"}}, "geometry": {"type": "Point", "coordinates": [166.90293258916782, 32.61455418918124]}}, {"type": "Feature", "properties": {"norad_id": 31424, "name": "FENGYUN 1C DEB", "group": "fengyun-1c-debris", "lat": -60.80106663669646, "lon": -151.43960889032897, "alt_km": 940.2578665051678, "timestamp": "2025-12-26T21:25:53.292630+00:00", "meta": {"OBJECT_NAME": "FENGYUN 1C DEB", "OBJECT_ID": "1999-025BTL", "EPOCH": "2025-12-26T01:32:08.802528", "MEAN_MOTION": 14.08369117, "ECCENTRICITY": 0.00942959, "INCLINATION": 98.4797, "RA_OF_ASC_NODE": 43.2634, "ARG_OF_PERICENTER": 67.8382, "MEAN_ANOMALY": 293.2764, "EPHEMERIS_TYPE": 0, "CLASSIFICATION_TYPE": "U", "NORAD_CAT_ID": 31424, "ELEMENT_SET_NO": 999, "REV_AT_EPOCH": 63358, "BSTAR": 0.00025728605, "MEAN_MOTION_DOT": 4.19e-06, "MEAN_MOTION_DDOT": 0}, "tle": {"line1": "1 31424U 99025BTL 25360.06399077  .00000419  00000+0  25729-3 0  9997", "line2": "2 31424  98.4797  43.2634 0094295  67.8382 293.2764 14.08369117633583"}}, "geometry": {"type": "Point", "coordinates": [-151.43960889032897, -60.80106663669646]}}, {"type": "Feature", "properties": {"norad_id": 31426, "name": "FENGYUN 1C DEB", "group": "fengyun-1c-debris", "lat": -42.37339495370886, "lon": -30.473450604410257, "alt_km": 869.2229502208911, "timestamp": "2025-12-26T21:25:53.292640+00:00", "meta": {"OBJECT_NAME": "FENGYUN 1C DEB", "OBJECT_ID": "1999-025BTN", "EPOCH": "2025-12-24T16:38:35.634336", "MEAN_MOTION": 13.9016565, "ECCENTRICITY": 0.03242634, "INCLINATION": 98.5802, "RA_OF_ASC_NODE": 155.4094, "ARG_OF_PERICENTER": 153.1493, "MEAN_ANOMALY": 224.4865, "EPHEMERIS_TYPE": 0, "CLASSIFICATION_TYPE": "U", "NORAD_CAT_ID": 31426, "ELEMENT_SET_NO": 999, "REV_AT_EPOCH": 93739, "BSTAR": 0.0020398597, "MEAN_MOTION_DOT": 3.82e-05, "MEAN_MOTION_DDOT": 0}, "tle": {"line1": "1 31426U 99025BTN 25358.69346799  .00003820  00000+0  20399-2 0  9994", "line2": "2 31426  98.5802 155.4094 0324263 153.1493 224.4865 13.90165650937392"}}, "geometry": {"type": "Point", "coordinates": [-30.473450604410257, -42.37339495370886]}}, {"type": "Feature", "properties": {"norad_id": 31427, "name": "FENGYUN 1C DEB", "group": "fengyun-1c-debris", "lat": 49.151451369525525, "lon": 100.40213247336375, "alt_km": 686.8180225692822, "timestamp": "2025-12-26T21:25:53.292650+00:00", "meta": {"OBJECT_NAME": "FENGYUN 1C DEB", "OBJECT_ID": "1999-025BTP", "EPOCH": "2025-12-26T06:23:25.729728", "MEAN_MOTION": 14.58940293, "ECCENTRICITY": 0.00312145, "INCLINATION": 98.6686, "RA_OF_ASC_NODE": 109.9109, "ARG_OF_PERICENTER": 335.5462, "MEAN_ANOMALY": 24.4254, "EPHEMERIS_TYPE": 0, "CLASSIFICATION_TYPE": "U", "NORAD_CAT_ID": 31427, "ELEMENT_SET_NO": 999, "REV_AT_EPOCH": 97078, "BSTAR": 0.0023349889, "MEAN_MOTION_DOT": 0.00010986, "MEAN_MOTION_DDOT": 0}, "tle": {"line1": "1 31427U 99025BTP 25360.26627002  .00010986  00000+0  23350-2 0  9991", "line2": "2 31427  98.6686 109.9109 0031214 335.5462  24.4254 14.58940293970787"}}, "geometry": {"type": "Point", "coordinates": [100.40213247336375, 49.151451369525525]}}, {"type": "Feature", "properties": {"norad_id": 31428, "name": "FENGYUN 1C DEB", "group": "fengyun-1c-debris", "lat": 13.374682722270764, "lon": -28.999756847523727, "alt_km": 759.0973671150487, "timestamp": "2025-12-26T21:25:53.292665+00:00", "meta": {"OBJECT_NAME": "FENGYUN 1C DEB", "OBJECT_ID": "1999-025BTQ", "EPOCH": "2025-12-24T10:07:55.451712", "MEAN_MOTION": 14.42065599, "ECCENTRICITY": 0.00644202, "INCLINATION": 99.0396, "RA_OF_ASC_NODE": 330.5542, "ARG_OF_PERICENTER": 119.3559, "MEAN_ANOMALY": 35.2408, "EPHEMERIS_TYPE": 0, "CLASSIFICATION_TYPE": "U", "NORAD_CAT_ID": 31428, "ELEMENT_SET_NO": 999, "REV_AT_EPOCH": 97678, "BSTAR": 0.00073759176, "MEAN_MOTION_DOT": 2.435e-05, "MEAN_MOTION_DDOT": 0}, "tle": {"line1": "1 31428U 99025BTQ 25358.42216958  .00002435  00000+0  73759-3 0  9990", "line2": "2 31428  99.0396 330.5542 0064420 119.3559  35.2408 14.42065599976781"}}, "geometry": {"type": "Point", "coordinates": [-28.999756847523727, 13.374682722270764]}}]}